{
  "type": "FeatureCollection",
  "features": [
    {
      "type": "Feature",
      "properties": {
        "norad_id": 31236,
        "name": "FENGYUN 1C DEB",
        "group": "fengyun-1c-debris",
        "lat": -64.23554580302913,
        "lon": -34.179584761676,
        "alt_km": 964.0858590027174,
        "timestamp": "2025-12-18T23:35:49.341791+00:00",
        "meta_object_name": "FENGYUN 1C DEB",
        "meta_object_id": "1999-025BLS",
        "meta_epoch": "2025-12-17T14:59:05.453088",
        "meta_mean_motion": 13.85915823,
        "meta_eccentricity": 0.03148984,
        "meta_inclination": 98.5449,
        "meta_ra_of_asc_node": 306.4287,
        "meta_arg_of_pericenter": 33.45,
        "meta_mean_anomaly": 328.612,
        "meta_ephemeris_type": 0,
        "meta_classification_type": "U",
        "meta_norad_cat_id": 31236,
        "meta_element_set_no": 999,
        "meta_rev_at_epoch": 61092,
        "meta_bstar": 0.0042154512,
        "meta_mean_motion_dot": 7.112e-05,
        "meta_mean_motion_ddot": 0,
        "tle_line1": "1 31236U 99025BLS 25351.62436867  .00007112  00000+0  42155-2 0  9997",
        "tle_line2": "2 31236  98.5449 306.4287 0314898  33.4500 328.6120 13.85915823610929"
      },
      "geometry": {
        "type": "Point",
        "coordinates": [
          -34.179584761676,
          -64.23554580302913
        ]
      }
    },
    {
      "type": "Feature",
      "properties": {
        "norad_id": 31237,
        "name": "FENGYUN 1C DEB",
        "group": "fengyun-1c-debris",
        "lat": 11.892466992417729,
        "lon": 173.47503243861306,
        "alt_km": 848.8635073679852,
        "timestamp": "2025-12-18T23:35:49.341801+00:00",
        "meta_object_name": "FENGYUN 1C DEB",
        "meta_object_id": "1999-025BLT",
        "meta_epoch": "2025-12-18T11:04:05.763648",
        "meta_mean_motion": 14.31407618,
        "meta_eccentricity": 0.00886458,
        "meta_inclination": 98.4532,
        "meta_ra_of_asc_node": 351.1722,
        "meta_arg_of_pericenter": 332.0124,
        "meta_mean_anomaly": 27.6307,
        "meta_ephemeris_type": 0,
        "meta_classification_type": "U",
        "meta_norad_cat_id": 31237,
        "meta_element_set_no": 999,
        "meta_rev_at_epoch": 97348,
        "meta_bstar": 0.00048495685,
        "meta_mean_motion_dot": 1.3e-05,
        "meta_mean_motion_ddot": 0,
        "tle_line1": "1 31237U 99025BLT 25352.46117782  .00001300  00000+0  48496-3 0  9991",
        "tle_line2": "2 31237  98.4532 351.1722 0088645 332.0124  27.6307 14.31407618973487"
      },
      "geometry": {
        "type": "Point",
        "coordinates": [
          173.47503243861306,
          11.892466992417729
        ]
      }
    },
    {
      "type": "Feature",
      "properties": {
        "norad_id": 31239,
        "name": "FENGYUN 1C DEB",
        "group": "fengyun-1c-debris",
        "lat": -57.74778043899775,
        "lon": 153.61651623966813,
        "alt_km": 847.9934898677329,
        "timestamp": "2025-12-18T23:35:49.341812+00:00",
        "meta_object_name": "FENGYUN 1C DEB",
        "meta_object_id": "1999-025BLV",
        "meta_epoch": "2025-12-17T22:45:52.668000",
        "meta_mean_motion": 14.09868444,
        "meta_eccentricity": 0.00495401,
        "meta_inclination": 98.758,
        "meta_ra_of_asc_node": 346.7501,
        "meta_arg_of_pericenter": 183.221,
        "meta_mean_anomaly": 206.4272,
        "meta_ephemeris_type": 0,
        "meta_classification_type": "U",
        "meta_norad_cat_id": 31239,
        "meta_element_set_no": 999,
        "meta_rev_at_epoch": 96085,
        "meta_bstar": 0.00029774061,
        "meta_mean_motion_dot": 4.87e-06,
        "meta_mean_motion_ddot": 0,
        "tle_line1": "1 31239U 99025BLV 25351.94852625  .00000487  00000+0  29774-3 0  9990",
        "tle_line2": "2 31239  98.7580 346.7501 0049540 183.2210 206.4272 14.09868444960851"
      },
      "geometry": {
        "type": "Point",
        "coordinates": [
          153.61651623966813,
          -57.74778043899775
        ]
      }
    },
    {
      "type": "Feature",
      "properties": {
        "norad_id": 31241,
        "name": "FENGYUN 1C DEB",
        "group": "fengyun-1c-debris",
        "lat": 0.8063042083064649,
        "lon": -39.59618085461534,
        "alt_km": 719.6694912714283,
        "timestamp": "2025-12-18T23:35:49.341822+00:00",
        "meta_object_name": "FENGYUN 1C DEB",
        "meta_object_id": "1999-025BLX",
        "meta_epoch": "2025-12-14T08:36:30.410784",
        "meta_mean_motion": 14.38706808,
        "meta_eccentricity": 0.00668387,
        "meta_inclination": 99.2333,
        "meta_ra_of_asc_node": 135.3007,
        "meta_arg_of_pericenter": 176.3169,
        "meta_mean_anomaly": 183.8522,
        "meta_ephemeris_type": 0,
        "meta_classification_type": "U",
        "meta_norad_cat_id": 31241,
        "meta_element_set_no": 999,
        "meta_rev_at_epoch": 97714,
        "meta_bstar": 0.00079512814,
        "meta_mean_motion_dot": 2.454e-05,
        "meta_mean_motion_ddot": 0,
        "tle_line1": "1 31241U 99025BLX 25348.35868531  .00002454  00000+0  79513-3 0  9999",
        "tle_line2": "2 31241  99.2333 135.3007 0066838 176.3169 183.8522 14.38706808977147"
      },
      "geometry": {
        "type": "Point",
        "coordinates": [
          -39.59618085461534,
          0.8063042083064649
        ]
      }
    },
    {
      "type": "Feature",
      "properties": {
        "norad_id": 31243,
        "name": "FENGYUN 1C DEB",
        "group": "fengyun-1c-debris",
        "lat": 64.33394241673608,
        "lon": -128.26084380193413,
        "alt_km": 824.1892821950705,
        "timestamp": "2025-12-18T23:35:49.341832+00:00",
        "meta_object_name": "FENGYUN 1C DEB",
        "meta_object_id": "1999-025BLZ",
        "meta_epoch": "2025-12-18T09:24:14.505120",
        "meta_mean_motion": 14.07185132,
        "meta_eccentricity": 0.00662196,
        "meta_inclination": 98.7499,
        "meta_ra_of_asc_node": 32.4739,
        "meta_arg_of_pericenter": 152.7117,
        "meta_mean_anomaly": 207.7557,
        "meta_ephemeris_type": 0,
        "meta_classification_type": "U",
        "meta_norad_cat_id": 31243,
        "meta_element_set_no": 999,
        "meta_rev_at_epoch": 69387,
        "meta_bstar": 0.00075786632,
        "meta_mean_motion_dot": 1.253e-05,
        "meta_mean_motion_ddot": 0,
        "tle_line1": "1 31243U 99025BLZ 25352.39183455  .00001253  00000+0  75787-3 0  9990",
        "tle_line2": "2 31243  98.7499  32.4739 0066219 152.7117 207.7557 14.07185132693875"
      },
      "geometry": {
        "type": "Point",
        "coordinates": [
          -128.26084380193413,
          64.33394241673608
        ]
      }
    },
    {
      "type": "Feature",
      "properties": {
        "norad_id": 31244,
        "name": "FENGYUN 1C DEB",
        "group": "fengyun-1c-debris",
        "lat": 61.93562321397479,
        "lon": -106.04154076116328,
        "alt_km": 809.7396389007199,
        "timestamp": "2025-12-18T23:35:49.341843+00:00",
        "meta_object_name": "FENGYUN 1C DEB",
        "meta_object_id": "1999-025BMA",
        "meta_epoch": "2025-12-07T22:21:36.542016",
        "meta_mean_motion": 14.06237413,
        "meta_eccentricity": 0.01023168,
        "meta_inclination": 99.037,
        "meta_ra_of_asc_node": 45.5611,
        "meta_arg_of_pericenter": 188.335,
        "meta_mean_anomaly": 171.6122,
        "meta_ephemeris_type": 0,
        "meta_classification_type": "U",
        "meta_norad_cat_id": 31244,
        "meta_element_set_no": 999,
        "meta_rev_at_epoch": 57572,
        "meta_bstar": 0.00047777338,
        "meta_mean_motion_dot": 7.8e-06,
        "meta_mean_motion_ddot": 0,
        "tle_line1": "1 31244U 99025BMA 25341.93167294  .00000780  00000+0  47777-3 0  9994",
        "tle_line2": "2 31244  99.0370  45.5611 0102316 188.3350 171.6122 14.06237413575724"
      },
      "geometry": {
        "type": "Point",
        "coordinates": [
          -106.04154076116328,
          61.93562321397479
        ]
      }
    },
    {
      "type": "Feature",
      "properties": {
        "norad_id": 31246,
        "name": "FENGYUN 1C DEB",
        "group": "fengyun-1c-debris",
        "lat": 49.44499310677931,
        "lon": -170.62999688045488,
        "alt_km": 851.5307327455457,
        "timestamp": "2025-12-18T23:35:49.341854+00:00",
        "meta_object_name": "FENGYUN 1C DEB",
        "meta_object_id": "1999-025BMC",
        "meta_epoch": "2025-12-12T08:40:07.558176",
        "meta_mean_motion": 14.07203108,
        "meta_eccentricity": 0.01486979,
        "meta_inclination": 98.8179,
        "meta_ra_of_asc_node": 193.3588,
        "meta_arg_of_pericenter": 344.8205,
        "meta_mean_anomaly": 14.8526,
        "meta_ephemeris_type": 0,
        "meta_classification_type": "U",
        "meta_norad_cat_id": 31246,
        "meta_element_set_no": 999,
        "meta_rev_at_epoch": 61747,
        "meta_bstar": 0.003171684,
        "meta_mean_motion_dot": 5.838e-05,
        "meta_mean_motion_ddot": 0,
        "tle_line1": "1 31246U 99025BMC 25346.36119859  .00005838  00000+0  31717-2 0  9997",
        "tle_line2": "2 31246  98.8179 193.3588 0148697 344.8205  14.8526 14.07203108617475"
      },
      "geometry": {
        "type": "Point",
        "coordinates": [
          -170.62999688045488,
          49.44499310677931
        ]
      }
    }
  ]
}